[{"OBJECT_NAME":"STARLINK-36503","OBJECT_ID":"2026-005H","EPOCH":"2026-03-09T11:12:36.135360","MEAN_MOTION":15.27585072,"ECCENTRICITY":7.107e-5,"INCLINATION":42.9979,"RA_OF_ASC_NODE":239.131,"ARG_OF_PERICENTER":206.9075,"MEAN_ANOMALY":153.174,"EPHEMERIS_TYPE":0,"CLASSIFICATION_TYPE":"U","NORAD_CAT_ID":67411,"ELEMENT_SET_NO":999,"REV_AT_EPOCH":866,"BSTAR":0.0010101174,"MEAN_MOTION_DOT":0.00027643,"MEAN_MOTION_DDOT":0},{"OBJECT_NAME":"CZ-2C R\/B","OBJECT_ID":"2024-203E","EPOCH":"2026-03-09T21:58:29.775360","MEAN_MOTION":15.29569733,"ECCENTRICITY":0.00782655,"INCLINATION":97.3142,"RA_OF_ASC_NODE":134.7565,"ARG_OF_PERICENTER":232.0261,"MEAN_ANOMALY":127.3893,"EPHEMERIS_TYPE":0,"CLASSIFICATION_TYPE":"U","NORAD_CAT_ID":61873,"ELEMENT_SET_NO":999,"REV_AT_EPOCH":7395,"BSTAR":0.00041889655,"MEAN_MOTION_DOT":0.00013106,"MEAN_MOTION_DDOT":0}]
